{
  "type": "FeatureCollection",
  "features": [
    {
      "type": "Feature",
      "properties": {
        "norad_id": 33860,
        "name": "IRIDIUM 33 DEB",
        "group": "iridium-33-debris",
        "lat": 22.034234784561864,
        "lon": -160.7531275347681,
        "alt_km": 671.9045709564007,
        "timestamp": "2025-12-27T11:23:20.286085+00:00",
        "meta_object_name": "IRIDIUM 33 DEB",
        "meta_object_id": "1997-051AD",
        "meta_epoch": "2025-12-27T02:46:19.604352",
        "meta_mean_motion": 14.67545299,
        "meta_eccentricity": 0.0005784,
        "meta_inclination": 86.3829,
        "meta_ra_of_asc_node": 20.8728,
        "meta_arg_of_pericenter": 299.7603,
        "meta_mean_anomaly": 122.4813,
        "meta_ephemeris_type": 0,
        "meta_classification_type": "U",
        "meta_norad_cat_id": 33860,
        "meta_element_set_no": 999,
        "meta_rev_at_epoch": 88933,
        "meta_bstar": 0.0013976,
        "meta_mean_motion_dot": 7.951e-05,
        "meta_mean_motion_ddot": 0,
        "tle_line1": "1 33860U 97051AD  25361.11550468  .00007951  00000+0  13976-2 0  9998",
        "tle_line2": "2 33860  86.3829  20.8728 0005784 299.7603 122.4813 14.67545299889339"
      },
      "geometry": {
        "type": "Point",
        "coordinates": [
          -160.7531275347681,
          22.034234784561864
        ]
      }
    },
    {
      "type": "Feature",
      "properties": {
        "norad_id": 33862,
        "name": "IRIDIUM 33 DEB",
        "group": "iridium-33-debris",
        "lat": -54.211651496824416,
        "lon": 26.032559309004597,
        "alt_km": 658.7577452493624,
        "timestamp": "2025-12-27T11:23:20.286097+00:00",
        "meta_object_name": "IRIDIUM 33 DEB",
        "meta_object_id": "1997-051AF",
        "meta_epoch": "2025-12-27T02:04:57.805824",
        "meta_mean_motion": 14.69713889,
        "meta_eccentricity": 0.0051819,
        "meta_inclination": 86.4084,
        "meta_ra_of_asc_node": 31.2018,
        "meta_arg_of_pericenter": 20.9133,
        "meta_mean_anomaly": 35.0712,
        "meta_ephemeris_type": 0,
        "meta_classification_type": "U",
        "meta_norad_cat_id": 33862,
        "meta_element_set_no": 999,
        "meta_rev_at_epoch": 89034,
        "meta_bstar": 0.0018027,
        "meta_mean_motion_dot": 0.00010991,
        "meta_mean_motion_ddot": 0,
        "tle_line1": "1 33862U 97051AF  25361.08678016  .00010991  00000+0  18027-2 0  9996",
        "tle_line2": "2 33862  86.4084  31.2018 0051819  20.9133  35.0712 14.69713889890349"
      },
      "geometry": {
        "type": "Point",
        "coordinates": [
          26.032559309004597,
          -54.211651496824416
        ]
      }
    },
    {
      "type": "Feature",
      "properties": {
        "norad_id": 33866,
        "name": "IRIDIUM 33 DEB",
        "group": "iridium-33-debris",
        "lat": -6.849335378964838,
        "lon": -92.75256014415649,
        "alt_km": 784.942890427631,
        "timestamp": "2025-12-27T11:23:20.286108+00:00",
        "meta_object_name": "IRIDIUM 33 DEB",
        "meta_object_id": "1997-051AK",
        "meta_epoch": "2025-12-26T16:41:52.800864",
        "meta_mean_motion": 14.25317881,
        "meta_eccentricity": 0.0115243,
        "meta_inclination": 86.2998,
        "meta_ra_of_asc_node": 87.1316,
        "meta_arg_of_pericenter": 117.1752,
        "meta_mean_anomaly": 34.7291,
        "meta_ephemeris_type": 0,
        "meta_classification_type": "U",
        "meta_norad_cat_id": 33866,
        "meta_element_set_no": 999,
        "meta_rev_at_epoch": 87009,
        "meta_bstar": 0.00062512122,
        "meta_mean_motion_dot": 1.597e-05,
        "meta_mean_motion_ddot": 0,
        "tle_line1": "1 33866U 97051AK  25360.69575001  .00001597  00000+0  62512-3 0  9997",
        "tle_line2": "2 33866  86.2998  87.1316 0115243 117.1752  34.7291 14.25317881870096"
      },
      "geometry": {
        "type": "Point",
        "coordinates": [
          -92.75256014415649,
          -6.849335378964838
        ]
      }
    },
    {
      "type": "Feature",
      "properties": {
        "norad_id": 33870,
        "name": "IRIDIUM 33 DEB",
        "group": "iridium-33-debris",
        "lat": -64.92384455170657,
        "lon": 44.15351611433454,
        "alt_km": 761.8547997218957,
        "timestamp": "2025-12-27T11:23:20.286120+00:00",
        "meta_object_name": "IRIDIUM 33 DEB",
        "meta_object_id": "1997-051AP",
        "meta_epoch": "2025-12-27T03:37:52.381344",
        "meta_mean_motion": 14.45923105,
        "meta_eccentricity": 0.0022803,
        "meta_inclination": 86.3732,
        "meta_ra_of_asc_node": 52.0823,
        "meta_arg_of_pericenter": 132.5551,
        "meta_mean_anomaly": 280.7612,
        "meta_ephemeris_type": 0,
        "meta_classification_type": "U",
        "meta_norad_cat_id": 33870,
        "meta_element_set_no": 999,
        "meta_rev_at_epoch": 88345,
        "meta_bstar": 0.00078633,
        "meta_mean_motion_dot": 2.824e-05,
        "meta_mean_motion_ddot": 0,
        "tle_line1": "1 33870U 97051AP  25361.15130071  .00002824  00000+0  78633-3 0  9993",
        "tle_line2": "2 33870  86.3732  52.0823 0022803 132.5551 280.7612 14.45923105883457"
      },
      "geometry": {
        "type": "Point",
        "coordinates": [
          44.15351611433454,
          -64.92384455170657
        ]
      }
    },
    {
      "type": "Feature",
      "properties": {
        "norad_id": 33881,
        "name": "IRIDIUM 33 DEB",
        "group": "iridium-33-debris",
        "lat": 15.193869967677312,
        "lon": 101.32130188460296,
        "alt_km": 719.9176226554582,
        "timestamp": "2025-12-27T11:23:20.286131+00:00",
        "meta_object_name": "IRIDIUM 33 DEB",
        "meta_object_id": "1997-051BA",
        "meta_epoch": "2025-12-26T19:24:14.995296",
        "meta_mean_motion": 14.56833072,
        "meta_eccentricity": 0.00610489,
        "meta_inclination": 86.3854,
        "meta_ra_of_asc_node": 100.6273,
        "meta_arg_of_pericenter": 129.1148,
        "meta_mean_anomaly": 356.0347,
        "meta_ephemeris_type": 0,
        "meta_classification_type": "U",
        "meta_norad_cat_id": 33881,
        "meta_element_set_no": 999,
        "meta_rev_at_epoch": 87705,
        "meta_bstar": 0.0021984716,
        "meta_mean_motion_dot": 0.00010127,
        "meta_mean_motion_ddot": 0,
        "tle_line1": "1 33881U 97051BA  25360.80850689  .00010127  00000+0  21985-2 0  9992",
        "tle_line2": "2 33881  86.3854 100.6273 0061048 129.1148 356.0347 14.56833072877057"
      },
      "geometry": {
        "type": "Point",
        "coordinates": [
          101.32130188460296,
          15.193869967677312
        ]
      }
    },
    {
      "type": "Feature",
      "properties": {
        "norad_id": 33884,
        "name": "IRIDIUM 33 DEB",
        "group": "iridium-33-debris",
        "lat": -12.050447866264117,
        "lon": 2.389961887043935,
        "alt_km": 640.1680805013475,
        "timestamp": "2025-12-27T11:23:20.286143+00:00",
        "meta_object_name": "IRIDIUM 33 DEB",
        "meta_object_id": "1997-051BD",
        "meta_epoch": "2025-12-27T00:11:41.738208",
        "meta_mean_motion": 14.77722532,
        "meta_eccentricity": 0.0008781,
        "meta_inclination": 86.3712,
        "meta_ra_of_asc_node": 3.3767,
        "meta_arg_of_pericenter": 267.5754,
        "meta_mean_anomaly": 120.7398,
        "meta_ephemeris_type": 0,
        "meta_classification_type": "U",
        "meta_norad_cat_id": 33884,
        "meta_element_set_no": 999,
        "meta_rev_at_epoch": 89058,
        "meta_bstar": 0.0018566,
        "meta_mean_motion_dot": 0.00013349,
        "meta_mean_motion_ddot": 0,
        "tle_line1": "1 33884U 97051BD  25361.00812197  .00013349  00000+0  18566-2 0  9990",
        "tle_line2": "2 33884  86.3712   3.3767 0008781 267.5754 120.7398 14.77722532890581"
      },
      "geometry": {
        "type": "Point",
        "coordinates": [
          2.389961887043935,
          -12.050447866264117
        ]
      }
    },
    {
      "type": "Feature",
      "properties": {
        "norad_id": 33886,
        "name": "IRIDIUM 33 DEB",
        "group": "iridium-33-debris",
        "lat": -54.945348078218856,
        "lon": -113.7998537362556,
        "alt_km": 771.7104510053077,
        "timestamp": "2025-12-27T11:23:20.286153+00:00",
        "meta_object_name": "IRIDIUM 33 DEB",
        "meta_object_id": "1997-051BF",
        "meta_epoch": "2025-12-27T03:52:21.168768",
        "meta_mean_motion": 14.36068773,
        "meta_eccentricity": 0.0013721,
        "meta_inclination": 86.3818,
        "meta_ra_of_asc_node": 61.1579,
        "meta_arg_of_pericenter": 190.8914,
        "meta_mean_anomaly": 225.9418,
        "meta_ephemeris_type": 0,
        "meta_classification_type": "U",
        "meta_norad_cat_id": 33886,
        "meta_element_set_no": 999,
        "meta_rev_at_epoch": 88259,
        "meta_bstar": 0.00021198,
        "meta_mean_motion_dot": 6.37e-06,
        "meta_mean_motion_ddot": 0,
        "tle_line1": "1 33886U 97051BF  25361.16135612  .00000637  00000+0  21198-3 0  9991",
        "tle_line2": "2 33886  86.3818  61.1579 0013721 190.8914 225.9418 14.36068773882597"
      },
      "geometry": {
        "type": "Point",
        "coordinates": [
          -113.7998537362556,
          -54.945348078218856
        ]
      }
    }
  ]
}